0 DELTA 2 R/B(2)
1 23641U 95041C   13282.51893149 -.00000087  00000-0  00000+0 0   313
2 23641 020.7142 340.6286 6427907 155.9823 246.8482 02.70399929179664
0 DELTA 2 R/B(2)
1 23641U 95041C   13287.36288193 -.00000054  00000-0  00000+0 0   334
2 23641 020.7131 338.8446 6427346 159.2071 282.1116 02.70400130179796
0 DELTA 2 R/B(2)
1 23641U 95041C   13290.38800931 -.00000051  00000-0  00000+0 0   348
2 23641 020.7123 337.7309 6427040 161.2183 346.8793 02.70399981179870
0 DELTA 2 R/B(2)
1 23641U 95041C   13292.62230341 -.00000080  00000-0  00000+0 0   352
2 23641 020.7117 336.9086 6426857 162.7030 001.8254 02.70399690179932
0 DELTA 2 R/B(2)
1 23641U 95041C   13295.12302875 -.00000107  00000-0  00000+0 0   363
2 23641 020.7109 335.9887 6426654 164.3646 276.1242 02.70399292180009
